NORAD_CAT_ID,OBJECT_NAME,OBJECT_TYPE,EPOCH,MEAN_MOTION,ECCENTRICITY,INCLINATION,RA_OF_ASC_NODE,ARG_OF_PERICENTER,MEAN_ANOMALY,BSTAR,MEAN_MOTION_DOT,MEAN_MOTION_DDOT,TLE_LINE0,TLE_LINE1,TLE_LINE2,SEMIMAJOR_AXIS,PERIOD,APOGEE,PERIGEE,DECAYED
53568.0,STARLINK-4583,PAYLOAD,2024-02-05 20:19:08,15.08833768,0.0001312,53.2156,238.5266,85.4777,274.6365,-3.0983e-05,-7.81e-06,0.0,0 STARLINK-4583,1 53568U 22101AT  24036.84662695 -.00000781  00000-0 -30983-4 0  9999,2 53568  53.2156 238.5266 0001312  85.4777 274.6365 15.08833768 81975,6917.899,95.438,540.672,538.857,0.0
53568.0,STARLINK-4583,PAYLOAD,2024-02-06 20:09:55,15.08837777,0.0001309,53.2159,234.0661,88.4957,271.6185,-2.4279e-05,-6.74e-06,0.0,0 STARLINK-4583,1 53568U 22101AT  24037.84022566 -.00000674  00000-0 -24279-4 0  9999,2 53568  53.2159 234.0661 0001309  88.4957 271.6185 15.08837777 81439,6917.887,95.438,540.658,538.847,0.0
53568.0,STARLINK-4583,PAYLOAD,2024-02-07 04:06:51,15.0883026,0.0001246,53.2156,232.577,99.5846,260.5287,-7.6815e-05,-1.51e-05,0.0,0 STARLINK-4583,1 53568U 22101AT  24038.17143113 -.00001510  00000-0 -76815-4 0  9991,2 53568  53.2156 232.5770 0001246  99.5846 260.5287 15.08830260 81485,6917.91,95.438,540.637,538.913,0.0
53568.0,STARLINK-4583,PAYLOAD,2024-02-07 13:39:10,15.08831113,0.0001215,53.2151,230.795,89.9991,270.114,-6.2634e-05,-1.284e-05,0.0,0 STARLINK-4583,1 53568U 22101AT  24038.56887333 -.00001284  00000-0 -62634-4 0  9995,2 53568  53.2151 230.7950 0001215  89.9991 270.1140 15.08831113 82237,6917.908,95.438,540.613,538.932,0.0
53568.0,STARLINK-4583,PAYLOAD,2024-02-07 20:00:42,15.08836573,0.0001283,53.2155,229.605,92.3371,267.7768,6.5377e-06,-1.84e-06,0.0,0 STARLINK-4583,1 53568U 22101AT  24038.83382988 -.00000184  00000-0  65377-5 0  9996,2 53568  53.2155 229.6050 0001283  92.3371 267.7768 15.08836573 81584,6917.891,95.438,540.643,538.868,0.0
53568.0,STARLINK-4583,PAYLOAD,2024-02-08 11:54:34,15.08836207,0.0001263,53.2143,226.6315,92.3595,267.7542,-2.6969e-05,-7.17e-06,0.0,0 STARLINK-4583,1 53568U 22101AT  24039.49623083 -.00000717  00000-0 -26969-4 0  9999,2 53568  53.2143 226.6315 0001263  92.3595 267.7542 15.08836207 82370,6917.892,95.438,540.631,538.883,0.0
53568.0,STARLINK-4583,PAYLOAD,2024-02-08 19:51:29,15.08839187,0.0001252,53.2139,225.1449,90.6604,269.4532,9.0306e-05,1.15e-05,0.0,0 STARLINK-4583,1 53568U 22101AT  24039.82743022  .00001150  00000-0  90306-4 0  9998,2 53568  53.2139 225.1449 0001252  90.6604 269.4532 15.08839187 82421,6917.883,95.438,540.614,538.882,0.0
53568.0,STARLINK-4583,PAYLOAD,2024-02-09 11:45:21,15.08838741,0.0001217,53.2139,222.1712,94.927,265.1861,0.00029777,4.454e-05,0.0,0 STARLINK-4583,1 53568U 22101AT  24040.48983296  .00004454  00000-0  29777-3 0  9994,2 53568  53.2139 222.1712 0001217  94.9270 265.1861 15.08838741 81835,6917.884,95.438,540.591,538.907,0.0
53568.0,STARLINK-4583,PAYLOAD,2024-02-09 19:42:16,15.08847168,0.0001299,53.2141,220.6847,89.6351,270.479,0.00027023,4.016e-05,0.0,0 STARLINK-4583,1 53568U 22101AT  24040.82102894  .00004016  00000-0  27023-3 0  9995,2 53568  53.2141 220.6847 0001299  89.6351 270.4790 15.08847168 82576,6917.858,95.437,540.622,538.825,0.0
53568.0,STARLINK-4583,PAYLOAD,2024-02-10 17:57:40,15.08844545,0.000146,53.2148,216.5226,78.8562,281.2594,0.00017773,2.542e-05,0.0,0 STARLINK-4583,1 53568U 22101AT  24041.74839108  .00002542  00000-0  17773-3 0  9995,2 53568  53.2148 216.5226 0001460  78.8562 281.2594 15.08844545 82020,6917.866,95.437,540.742,538.721,0.0
53568.0,STARLINK-4583,PAYLOAD,2024-02-10 21:08:27,15.08847329,0.0001473,53.2138,215.9268,79.7252,280.3906,0.00022509,3.297e-05,0.0,0 STARLINK-4583,1 53568U 22101AT  24041.88086956  .00003297  00000-0  22509-3 0  9996,2 53568  53.2138 215.9268 0001473  79.7252 280.3906 15.08847329 82736,6917.858,95.437,540.742,538.704,0.0
53568.0,STARLINK-4583,PAYLOAD,2024-02-11 14:37:42,15.08827683,0.0001661,53.2148,212.6525,80.8744,279.2436,0.00076316,0.00011874,0.0,0 STARLINK-4583,1 53568U 22101AT  24042.60951973  .00011874  00000-0  76316-3 0  9992,2 53568  53.2148 212.6525 0001661  80.8744 279.2436 15.08827683 82843,6917.918,95.438,540.932,538.634,0.0
53568.0,STARLINK-4583,PAYLOAD,2024-02-11 17:48:30,15.08797289,0.0001783,53.2158,212.0577,82.7878,277.3316,0.0015063,0.00023738,0.0,0 STARLINK-4583,1 53568U 22101AT  24042.74201769  .00023738  00000-0  15063-2 0  9991,2 53568  53.2158 212.0577 0001783  82.7878 277.3316 15.08797289 82179,6918.011,95.44,541.109,538.642,0.0
53568.0,STARLINK-4583,PAYLOAD,2024-02-12 11:17:42,15.08837568,0.0001551,53.2167,208.7859,89.3485,270.7685,1.1299e-05,-1.08e-06,0.0,0 STARLINK-4583,1 53568U 22101AT  24043.47063177 -.00000108  00000-0  11299-4 0  9997,2 53568  53.2167 208.7859 0001551  89.3485 270.7685 15.08837568 82287,6917.888,95.438,540.826,538.68,0.0
53568.0,STARLINK-4583,PAYLOAD,2024-02-12 14:28:28,15.0883743,0.0001553,53.2167,208.1912,89.2979,270.8191,6.1594e-06,-1.9e-06,0.0,0 STARLINK-4583,1 53568U 22101AT  24043.60311192 -.00000190  00000-0  61594-5 0  9990,2 53568  53.2167 208.1912 0001553  89.2979 270.8191 15.08837430 82999,6917.888,95.438,540.828,538.679,0.0
53568.0,STARLINK-4583,PAYLOAD,2024-02-12 16:03:51,15.08838407,0.0001534,53.2163,207.895,96.4709,263.6458,1.5738e-05,-3.8e-07,0.0,0 STARLINK-4583,1 53568U 22101AT  24043.66935090 -.00000038  00000-0  15738-4 0  9994,2 53568  53.2163 207.8950 0001534  96.4709 263.6458 15.08838407 83007,6917.885,95.438,540.811,538.689,0.0
53568.0,STARLINK-4583,PAYLOAD,2024-02-13 14:19:16,15.08831677,0.0001584,53.2176,203.7388,104.7026,255.4142,-5.684e-05,-1.192e-05,0.0,0 STARLINK-4583,1 53568U 22101AT  24044.59671774 -.00001192  00000-0 -56840-4 0  9995,2 53568  53.2176 203.7388 0001584 104.7026 255.4142 15.08831677 83147,6917.906,95.438,540.867,538.675,0.0
53568.0,STARLINK-4583,PAYLOAD,2024-02-13 17:30:02,15.08842343,0.0001396,53.2176,203.1434,107.9475,252.1669,5.3723e-05,5.67e-06,0.0,0 STARLINK-4583,1 53568U 22101AT  24044.72919366  .00000567  00000-0  53723-4 0  9992,2 53568  53.2176 203.1434 0001396 107.9475 252.1669 15.08842343 82472,6917.873,95.437,540.704,538.772,0.0
53568.0,STARLINK-4583,PAYLOAD,2024-02-14 14:10:02,15.08838048,0.0001392,53.2175,199.2776,100.4363,259.6786,5.7258e-05,6.23e-06,0.0,0 STARLINK-4583,1 53568U 22101AT  24045.59031181  .00000623  00000-0  57258-4 0  9998,2 53568  53.2175 199.2776 0001392 100.4363 259.6786 15.08838048 83295,6917.886,95.438,540.714,538.788,0.0
53568.0,STARLINK-4583,PAYLOAD,2024-02-14 17:20:49,15.08839245,0.00014,53.2177,198.6834,105.4432,254.6715,6.4413e-05,7.37e-06,0.0,0 STARLINK-4583,1 53568U 22101AT  24045.72279182  .00000737  00000-0  64413-4 0  9995,2 53568  53.2177 198.6834 0001400 105.4432 254.6715 15.08839245 83317,6917.883,95.438,540.716,538.779,0.0
53568.0,STARLINK-4583,PAYLOAD,2024-02-15 02:53:08,15.0883079,0.0001291,53.217,196.8967,95.9116,264.2024,2.6689e-05,1.37e-06,0.0,0 STARLINK-4583,1 53568U 22101AT  24046.12023823  .00000137  00000-0  26689-4 0  9996,2 53568  53.2170 196.8967 0001291  95.9116 264.2024 15.08830790 82682,6917.909,95.438,540.667,538.88,0.0
53568.0,STARLINK-4583,PAYLOAD,2024-02-15 14:00:51,15.08821999,0.0001413,53.2176,194.8178,97.9964,262.1189,-8.9649e-05,-1.714e-05,0.0,0 STARLINK-4583,1 53568U 22101AT  24046.58393077 -.00001714  00000-0 -89649-4 0  9996,2 53568  53.2176 194.8178 0001413  97.9964 262.1189 15.08821999 83444,6917.935,95.439,540.778,538.823,0.0
53568.0,STARLINK-4583,PAYLOAD,2024-02-15 18:47:00,15.08827869,0.0001523,53.2171,193.9207,83.8735,276.243,-4.3716e-05,-9.83e-06,0.0,0 STARLINK-4583,1 53568U 22101AT  24046.78264708 -.00000983  00000-0 -43716-4 0  9998,2 53568  53.2171 193.9207 0001523  83.8735 276.2430 15.08827869 83474,6917.917,95.438,540.836,538.729,0.0
53568.0,STARLINK-4583,PAYLOAD,2024-02-16 13:51:36,15.08848027,0.0001388,53.2167,190.3548,90.8345,269.2807,8.3709e-05,1.045e-05,0.0,0 STARLINK-4583,1 53568U 22101AT  24047.57750957  .00001045  00000-0  83709-4 0  9996,2 53568  53.2167 190.3548 0001388  90.8345 269.2807 15.08848027 83594,6917.856,95.437,540.681,538.761,0.0
53568.0,STARLINK-4583,PAYLOAD,2024-02-16 17:02:22,15.08856743,0.0001328,53.2158,189.7583,83.9827,276.1317,0.00021444,3.128e-05,0.0,0 STARLINK-4583,1 53568U 22101AT  24047.70998780  .00003128  00000-0  21444-3 0  9990,2 53568  53.2158 189.7583 0001328  83.9827 276.1317 15.08856743 82920,6917.829,95.436,540.613,538.776,0.0
53568.0,STARLINK-4583,PAYLOAD,2024-02-17 15:17:48,15.0883404,0.0001553,53.2175,185.5939,96.1388,263.9781,7.3475e-05,8.81e-06,0.0,0 STARLINK-4583,1 53568U 22101AT  24048.63736259  .00000881  00000-0  73475-4 0  9999,2 53568  53.2175 185.5939 0001553  96.1388 263.9781 15.08834040 83753,6917.899,95.438,540.838,538.689,0.0
53568.0,STARLINK-4583,PAYLOAD,2024-02-17 18:28:33,15.08842827,0.000135,53.2154,184.9989,97.6781,262.4364,9.9535e-05,1.297e-05,0.0,0 STARLINK-4583,1 53568U 22101AT  24048.76983765  .00001297  00000-0  99535-4 0  9996,2 53568  53.2154 184.9989 0001350  97.6781 262.4364 15.08842827 83085,6917.872,95.437,540.671,538.803,0.0
53568.0,STARLINK-4583,PAYLOAD,2024-02-18 15:08:34,15.08847359,0.0001535,53.215,181.1368,89.7598,270.357,0.00015653,2.205e-05,0.0,0 STARLINK-4583,1 53568U 22101AT  24049.63095465  .00002205  00000-0  15653-3 0  9992,2 53568  53.2150 181.1368 0001535  89.7598 270.3570 15.08847359 83907,6917.858,95.437,540.785,538.661,0.0
53568.0,STARLINK-4583,PAYLOAD,2024-02-19 02:16:16,15.08846079,0.0001667,53.2165,179.0539,72.6629,287.4545,0.00013261,1.823e-05,0.0,0 STARLINK-4583,1 53568U 22101AT  24050.09463569  .00001823  00000-0  13261-3 0  9996,2 53568  53.2165 179.0539 0001667  72.6629 287.4545 15.08846079 83281,6917.862,95.437,540.88,538.574,0.0
53568.0,STARLINK-4583,PAYLOAD,2024-02-19 11:48:35,15.08836093,0.0001859,53.2158,177.267,113.0752,247.0436,-1.2976e-05,-4.95e-06,0.0,0 STARLINK-4583,1 53568U 22101AT  24050.49208038 -.00000495  00000-0 -12976-4 0  9997,2 53568  53.2158 177.2670 0001859 113.0752 247.0436 15.08836093 83342,6917.892,95.438,541.043,538.471,0.0
